[{"OBJECT_NAME":"STARLINK-34089","OBJECT_ID":"2025-102T","EPOCH":"2026-03-09T12:46:59.695968","MEAN_MOTION":14.98352565,"ECCENTRICITY":0.00033576,"INCLINATION":70.0009,"RA_OF_ASC_NODE":115.0499,"ARG_OF_PERICENTER":269.0901,"MEAN_ANOMALY":90.9874,"EPHEMERIS_TYPE":0,"CLASSIFICATION_TYPE":"U","NORAD_CAT_ID":64039,"ELEMENT_SET_NO":999,"REV_AT_EPOCH":4592,"BSTAR":0.00043099448,"MEAN_MOTION_DOT":5.056e-5,"MEAN_MOTION_DDOT":0},{"OBJECT_NAME":"COSMOS 2251 DEB","OBJECT_ID":"1993-036APC","EPOCH":"2026-03-07T07:06:21.229920","MEAN_MOTION":14.8796969,"ECCENTRICITY":0.0085938,"INCLINATION":74.0103,"RA_OF_ASC_NODE":270.9975,"ARG_OF_PERICENTER":352.1798,"MEAN_ANOMALY":7.8035,"EPHEMERIS_TYPE":0,"CLASSIFICATION_TYPE":"U","NORAD_CAT_ID":35661,"ELEMENT_SET_NO":999,"REV_AT_EPOCH":89125,"BSTAR":0.00081888,"MEAN_MOTION_DOT":8.012e-5,"MEAN_MOTION_DDOT":0}]
